{
  "type": "FeatureCollection",
  "features": [
    {
      "type": "Feature",
      "properties": {
        "norad_id": 33972,
        "name": "COSMOS 2251 DEB",
        "group": "cosmos-2251-debris",
        "lat": 22.871881545240523,
        "lon": -155.46066960335372,
        "alt_km": 686.492634389444,
        "timestamp": "2025-12-08T23:34:04.364860+00:00",
        "meta_object_name": "COSMOS 2251 DEB",
        "meta_object_id": "1993-036FF",
        "meta_epoch": "2025-12-08T09:14:11.114304",
        "meta_mean_motion": 14.36176822,
        "meta_eccentricity": 0.01230842,
        "meta_inclination": 73.9938,
        "meta_ra_of_asc_node": 198.6837,
        "meta_arg_of_pericenter": 7.3687,
        "meta_mean_anomaly": 170.0122,
        "meta_ephemeris_type": 0,
        "meta_classification_type": "U",
        "meta_norad_cat_id": 33972,
        "meta_element_set_no": 999,
        "meta_rev_at_epoch": 87011,
        "meta_bstar": 0.0015608528,
        "meta_mean_motion_dot": 4.938e-05,
        "meta_mean_motion_ddot": 0,
        "tle_line1": "1 33972U 93036FF  25342.38485086  .00004938  00000+0  15609-2 0  9999",
        "tle_line2": "2 33972  73.9938 198.6837 0123084   7.3687 170.0122 14.36176822870116"
      },
      "geometry": {
        "type": "Point",
        "coordinates": [
          -155.46066960335372,
          22.871881545240523
        ]
      }
    },
    {
      "type": "Feature",
      "properties": {
        "norad_id": 33973,
        "name": "COSMOS 2251 DEB",
        "group": "cosmos-2251-debris",
        "lat": 10.136371059585741,
        "lon": 112.84778372219486,
        "alt_km": 736.936086258821,
        "timestamp": "2025-12-08T23:34:04.364870+00:00",
        "meta_object_name": "COSMOS 2251 DEB",
        "meta_object_id": "1993-036FG",
        "meta_epoch": "2025-12-08T15:18:04.396032",
        "meta_mean_motion": 14.45384379,
        "meta_eccentricity": 0.00472524,
        "meta_inclination": 74.0078,
        "meta_ra_of_asc_node": 110.5517,
        "meta_arg_of_pericenter": 289.7238,
        "meta_mean_anomaly": 88.8524,
        "meta_ephemeris_type": 0,
        "meta_classification_type": "U",
        "meta_norad_cat_id": 33973,
        "meta_element_set_no": 999,
        "meta_rev_at_epoch": 88541,
        "meta_bstar": 0.00030243516,
        "meta_mean_motion_dot": 1.05e-05,
        "meta_mean_motion_ddot": 0,
        "tle_line1": "1 33973U 93036FG  25342.63755088  .00001050  00000+0  30244-3 0  9995",
        "tle_line2": "2 33973  74.0078 110.5517 0047252 289.7238  88.8524 14.45384379885411"
      },
      "geometry": {
        "type": "Point",
        "coordinates": [
          112.84778372219486,
          10.136371059585741
        ]
      }
    },
    {
      "type": "Feature",
      "properties": {
        "norad_id": 33975,
        "name": "COSMOS 2251 DEB",
        "group": "cosmos-2251-debris",
        "lat": -16.039731044531003,
        "lon": -84.14776381698631,
        "alt_km": 772.8467663460215,
        "timestamp": "2025-12-08T23:34:04.364881+00:00",
        "meta_object_name": "COSMOS 2251 DEB",
        "meta_object_id": "1993-036FJ",
        "meta_epoch": "2025-12-08T08:54:18.999072",
        "meta_mean_motion": 14.00510542,
        "meta_eccentricity": 0.01914125,
        "meta_inclination": 73.8025,
        "meta_ra_of_asc_node": 92.1322,
        "meta_arg_of_pericenter": 225.6963,
        "meta_mean_anomaly": 132.8338,
        "meta_ephemeris_type": 0,
        "meta_classification_type": "U",
        "meta_norad_cat_id": 33975,
        "meta_element_set_no": 999,
        "meta_rev_at_epoch": 85768,
        "meta_bstar": 0.0012166568,
        "meta_mean_motion_dot": 2.091e-05,
        "meta_mean_motion_ddot": 0,
        "tle_line1": "1 33975U 93036FJ  25342.37105323  .00002091  00000+0  12167-2 0  9998",
        "tle_line2": "2 33975  73.8025  92.1322 0191412 225.6963 132.8338 14.00510542857688"
      },
      "geometry": {
        "type": "Point",
        "coordinates": [
          -84.14776381698631,
          -16.039731044531003
        ]
      }
    },
    {
      "type": "Feature",
      "properties": {
        "norad_id": 33980,
        "name": "COSMOS 2251 DEB",
        "group": "cosmos-2251-debris",
        "lat": -30.078663640230452,
        "lon": 57.005523700529665,
        "alt_km": 712.295697334217,
        "timestamp": "2025-12-08T23:34:04.364891+00:00",
        "meta_object_name": "COSMOS 2251 DEB",
        "meta_object_id": "1993-036FP",
        "meta_epoch": "2025-12-08T16:11:00.261312",
        "meta_mean_motion": 14.5861034,
        "meta_eccentricity": 0.00289191,
        "meta_inclination": 74.0216,
        "meta_ra_of_asc_node": 67.1441,
        "meta_arg_of_pericenter": 212.9955,
        "meta_mean_anomaly": 300.389,
        "meta_ephemeris_type": 0,
        "meta_classification_type": "U",
        "meta_norad_cat_id": 33980,
        "meta_element_set_no": 999,
        "meta_rev_at_epoch": 88735,
        "meta_bstar": 0.001255954,
        "meta_mean_motion_dot": 5.856e-05,
        "meta_mean_motion_ddot": 0,
        "tle_line1": "1 33980U 93036FP  25342.67430858  .00005856  00000+0  12560-2 0  9990",
        "tle_line2": "2 33980  74.0216  67.1441 0028919 212.9955 300.3890 14.58610340887356"
      },
      "geometry": {
        "type": "Point",
        "coordinates": [
          57.005523700529665,
          -30.078663640230452
        ]
      }
    },
    {
      "type": "Feature",
      "properties": {
        "norad_id": 33982,
        "name": "COSMOS 2251 DEB",
        "group": "cosmos-2251-debris",
        "lat": 16.48828489268202,
        "lon": -177.75396406655804,
        "alt_km": 710.6247194992311,
        "timestamp": "2025-12-08T23:34:04.364902+00:00",
        "meta_object_name": "COSMOS 2251 DEB",
        "meta_object_id": "1993-036FR",
        "meta_epoch": "2025-12-08T12:00:10.742112",
        "meta_mean_motion": 14.6018816,
        "meta_eccentricity": 0.00749502,
        "meta_inclination": 74.0708,
        "meta_ra_of_asc_node": 8.0128,
        "meta_arg_of_pericenter": 53.743,
        "meta_mean_anomaly": 96.1764,
        "meta_ephemeris_type": 0,
        "meta_classification_type": "U",
        "meta_norad_cat_id": 33982,
        "meta_element_set_no": 999,
        "meta_rev_at_epoch": 89097,
        "meta_bstar": 0.00060273026,
        "meta_mean_motion_dot": 2.992e-05,
        "meta_mean_motion_ddot": 0,
        "tle_line1": "1 33982U 93036FR  25342.50012433  .00002992  00000+0  60273-3 0  9992",
        "tle_line2": "2 33982  74.0708   8.0128 0074950  53.7430  96.1764 14.60188160890970"
      },
      "geometry": {
        "type": "Point",
        "coordinates": [
          -177.75396406655804,
          16.48828489268202
        ]
      }
    },
    {
      "type": "Feature",
      "properties": {
        "norad_id": 33983,
        "name": "COSMOS 2251 DEB",
        "group": "cosmos-2251-debris",
        "lat": -40.71664174648403,
        "lon": -11.64677986739666,
        "alt_km": 717.2344029424985,
        "timestamp": "2025-12-08T23:34:04.364912+00:00",
        "meta_object_name": "COSMOS 2251 DEB",
        "meta_object_id": "1993-036FS",
        "meta_epoch": "2025-12-08T14:35:31.157664",
        "meta_mean_motion": 14.50644833,
        "meta_eccentricity": 0.00214019,
        "meta_inclination": 74.0491,
        "meta_ra_of_asc_node": 154.8057,
        "meta_arg_of_pericenter": 258.2227,
        "meta_mean_anomaly": 172.221,
        "meta_ephemeris_type": 0,
        "meta_classification_type": "U",
        "meta_norad_cat_id": 33983,
        "meta_element_set_no": 999,
        "meta_rev_at_epoch": 88569,
        "meta_bstar": 0.00094498088,
        "meta_mean_motion_dot": 3.695e-05,
        "meta_mean_motion_ddot": 0,
        "tle_line1": "1 33983U 93036FS  25342.60799951  .00003695  00000+0  94498-3 0  9998",
        "tle_line2": "2 33983  74.0491 154.8057 0021401 258.2227 172.2210 14.50644833885698"
      },
      "geometry": {
        "type": "Point",
        "coordinates": [
          -11.64677986739666,
          -40.71664174648403
        ]
      }
    },
    {
      "type": "Feature",
      "properties": {
        "norad_id": 33984,
        "name": "COSMOS 2251 DEB",
        "group": "cosmos-2251-debris",
        "lat": 59.38230701135944,
        "lon": 145.3752023713029,
        "alt_km": 663.0340041758891,
        "timestamp": "2025-12-08T23:34:04.364923+00:00",
        "meta_object_name": "COSMOS 2251 DEB",
        "meta_object_id": "1993-036FT",
        "meta_epoch": "2025-12-08T12:16:39.176256",
        "meta_mean_motion": 14.66305339,
        "meta_eccentricity": 0.00233777,
        "meta_inclination": 74.0093,
        "meta_ra_of_asc_node": 355.2656,
        "meta_arg_of_pericenter": 194.475,
        "meta_mean_anomaly": 319.9546,
        "meta_ephemeris_type": 0,
        "meta_classification_type": "U",
        "meta_norad_cat_id": 33984,
        "meta_element_set_no": 999,
        "meta_rev_at_epoch": 89004,
        "meta_bstar": 0.0011530319,
        "meta_mean_motion_dot": 6.362e-05,
        "meta_mean_motion_ddot": 0,
        "tle_line1": "1 33984U 93036FT  25342.51156454  .00006362  00000+0  11530-2 0  9993",
        "tle_line2": "2 33984  74.0093 355.2656 0023377 194.4750 319.9546 14.66305339890044"
      },
      "geometry": {
        "type": "Point",
        "coordinates": [
          145.3752023713029,
          59.38230701135944
        ]
      }
    }
  ]
}